[{"OBJECT_NAME":"QIANKUN-1","OBJECT_ID":"2023-103B","EPOCH":"2026-03-09T21:23:05.979552","MEAN_MOTION":16.07660526,"ECCENTRICITY":0.0039279,"INCLINATION":96.1935,"RA_OF_ASC_NODE":120.4074,"ARG_OF_PERICENTER":169.7864,"MEAN_ANOMALY":190.4229,"EPHEMERIS_TYPE":0,"CLASSIFICATION_TYPE":"U","NORAD_CAT_ID":57422,"ELEMENT_SET_NO":999,"REV_AT_EPOCH":15134,"BSTAR":-2.1023e-8,"MEAN_MOTION_DOT":-5.5e-6,"MEAN_MOTION_DDOT":1.678977e-6},{"OBJECT_NAME":"STARLINK-31145","OBJECT_ID":"2024-011D","EPOCH":"2026-03-09T22:00:01.999584","MEAN_MOTION":15.98082868,"ECCENTRICITY":0.00105494,"INCLINATION":53.1214,"RA_OF_ASC_NODE":1.0032,"ARG_OF_PERICENTER":117.304,"MEAN_ANOMALY":99.8239,"EPHEMERIS_TYPE":0,"CLASSIFICATION_TYPE":"U","NORAD_CAT_ID":58768,"ELEMENT_SET_NO":999,"REV_AT_EPOCH":589,"BSTAR":0.00123724,"MEAN_MOTION_DOT":0.00582991,"MEAN_MOTION_DDOT":0.00015716383}]
